OBJECT_NAME,OBJECT_ID,EPOCH,MEAN_MOTION,ECCENTRICITY,INCLINATION,RA_OF_ASC_NODE,ARG_OF_PERICENTER,MEAN_ANOMALY,EPHEMERIS_TYPE,CLASSIFICATION_TYPE,NORAD_CAT_ID,ELEMENT_SET_NO,REV_AT_EPOCH,BSTAR,MEAN_MOTION_DOT,MEAN_MOTION_DDOT
STARLINK-38005,2026-145A,2026-07-13T12:35:59.574048,15.75219901,.00015356,97.2836,41.2779,100.9749,259.1689,0,U,69677,999,291,.84990633E-3,.128734E-2,0
STARLINK-38009,2026-145B,2026-07-13T12:33:27.071136,15.75229466,.00017837,97.2832,41.2807,107.3122,252.8338,0,U,69678,999,291,.88198788E-3,.133734E-2,0
STARLINK-37998,2026-145C,2026-07-13T12:29:53.645856,15.75213264,.0001494,97.2837,41.2837,104.2852,255.8579,0,U,69679,999,291,.74987E-3,.113328E-2,0
STARLINK-37994,2026-145D,2026-07-13T12:31:55.672032,15.75330817,.0000357,97.2838,41.2818,114.0296,246.1007,0,U,69680,999,291,.108E-2,.165112E-2,0
STARLINK-37992,2026-145E,2026-07-13T12:31:25.146048,15.75222738,.0001454,97.2847,41.2829,101.5194,258.6234,0,U,69681,999,291,.89616E-3,.135878E-2,0
STARLINK-37997,2026-145F,2026-07-13T12:30:24.155424,15.75222824,.0001269,97.2835,41.2832,97.6930,262.4480,0,U,69682,999,291,.87948E-3,.133306E-2,0
STARLINK-37990,2026-145G,2026-07-13T12:30:54.639936,15.75237546,.00014251,97.2852,41.2829,107.2500,252.8921,0,U,69683,999,291,.10955966E-2,.16686E-2,0
STARLINK-37951,2026-145H,2026-07-13T12:29:23.131104,15.75259469,.0001484,97.2831,41.2843,114.4040,245.7380,0,U,69684,999,291,.13701E-2,.209964E-2,0
STARLINK-37957,2026-145J,2026-07-13T12:27:51.687072,15.75226942,.0001582,97.2844,41.2857,105.4092,254.7348,0,U,69685,999,291,.93535E-3,.141954E-2,0
STARLINK-37968,2026-145K,2026-07-13T12:19:13.260288,15.75262185,.00015547,97.2835,41.2940,101.1523,258.9917,0,U,69686,999,291,.13179464E-2,.201795E-2,0
STARLINK-37977,2026-145L,2026-07-13T12:18:12.253248,15.75263487,.00016442,97.2842,41.2953,100.9736,259.1714,0,U,69687,999,291,.13052729E-2,.199818E-2,0
STARLINK-37908,2026-145M,2026-07-13T12:15:09.317664,15.75275603,.00015238,97.2848,41.2995,105.5681,254.5752,0,U,69688,999,291,.15173583E-2,.23335E-2,0
STARLINK-37979,2026-145N,2026-07-13T13:46:07.733568,15.75157356,.0000998,97.2842,41.3650,61.1258,299.0108,0,U,69689,999,292,.80668E-3,.121747E-2,0
STARLINK-37940,2026-145P,2026-07-13T12:13:07.350240,15.75259249,.00019738,97.2847,41.3013,102.5824,257.5662,0,U,69690,999,291,.11993097E-2,.183196E-2,0
STARLINK-37961,2026-145Q,2026-07-13T13:40:02.099136,15.75158712,.0002475,97.2843,41.3706,352.7664,7.3565,0,U,69691,999,292,.89301E-3,.135023E-2,0
STARLINK-37787,2026-145R,2026-07-13T13:36:58.938048,15.75161268,.0001349,97.2840,41.3735,48.2409,311.8971,0,U,69692,999,292,.59291E-3,.89123E-3,0
STARLINK-37962,2026-145S,2026-07-13T13:34:26.400576,15.75167035,.0001102,97.2851,41.3769,50.8924,309.2439,0,U,69693,999,292,.86581E-3,.130878E-2,0
STARLINK-37953,2026-145T,2026-07-13T13:38:30.371712,15.75164423,.0000958,97.2845,41.3731,91.6548,268.4827,0,U,69694,999,292,.77057E-3,.116252E-2,0
STARLINK-37926,2026-145U,2026-07-13T13:37:29.495136,15.75167446,.0001182,97.2847,41.3738,33.1007,327.0332,0,U,69695,999,292,.88368E-3,.133627E-2,0
STARLINK-37959,2026-145V,2026-07-13T13:35:58.000128,15.75175759,.0000714,97.2844,41.3742,63.1877,296.9461,0,U,69696,999,292,.10203E-2,.154745E-2,0
STARLINK-37976,2026-145W,2026-07-13T13:31:54.138720,15.75165651,.0001311,97.2842,41.3786,24.5670,335.5657,0,U,69697,999,292,.77718E-3,.117273E-2,0
STARLINK-37912,2026-145X,2026-07-13T13:30:22.738752,15.75173916,.0001849,97.2841,41.3814,6.8052,353.3238,0,U,69698,999,292,.10825E-2,.16437E-2,0
STARLINK-37974,2026-145Y,2026-07-13T19:35:17.245248,15.75202638,.0002542,97.2843,41.6491,350.4303,9.6913,0,U,69699,999,296,.11468E-2,.174564E-2,0
STARLINK-37955,2026-145Z,2026-07-13T19:31:43.563360,15.75198703,.0001608,97.2843,41.6520,92.3524,267.7926,0,U,69700,999,296,.76501E-3,.115578E-2,0
STRIX-8,2026-146A,2026-07-13T19:47:33.902016,15.04427522,.0007342,41.9902,20.6848,13.1038,346.9979,0,U,69701,999,257,.19008E-3,.2512E-4,0
STARLINK-38055,2026-147A,2026-07-13T15:35:59.959392,15.80838481,.0000795,97.2841,230.9465,138.2404,221.8925,0,U,69704,999,361,.7445E-3,.145006E-2,0
STARLINK-37898,2026-147B,2026-07-13T15:34:48.861696,15.80804873,.0000399,97.2838,230.9473,54.4258,305.7047,0,U,69705,999,361,.92835E-3,.181334E-2,0
STARLINK-37970,2026-147C,2026-07-13T15:33:44.237088,15.80798834,.0001131,97.2836,230.9486,93.7145,266.4253,0,U,69706,999,361,.10048E-2,.196577E-2,0
