STARLINK-38005          
1 69677U 26145A   26194.52499507  .00128734  00000+0  84991-3 0  9994
2 69677  97.2836  41.2779 0001535 100.9749 259.1689 15.75219901  2918
STARLINK-38009          
1 69678U 26145B   26194.52322999  .00133734  00000+0  88199-3 0  9995
2 69678  97.2832  41.2807 0001783 107.3122 252.8338 15.75229466  2916
STARLINK-37998          
1 69679U 26145C   26194.52075979  .00113328  00000+0  74987-3 0  9996
2 69679  97.2837  41.2837 0001494 104.2852 255.8579 15.75213264  2919
STARLINK-37994          
1 69680U 26145D   26194.52217213  .00165112  00000+0  10800-2 0  9998
2 69680  97.2838  41.2818 0000357 114.0296 246.1007 15.75330817  2912
STARLINK-37992          
1 69681U 26145E   26194.52181882  .00135878  00000+0  89616-3 0  9999
2 69681  97.2847  41.2829 0001454 101.5194 258.6234 15.75222738  2914
STARLINK-37997          
1 69682U 26145F   26194.52111291  .00133306  00000+0  87948-3 0  9997
2 69682  97.2835  41.2832 0001269  97.6930 262.4480 15.75222824  2915
STARLINK-37990          
1 69683U 26145G   26194.52146574  .00166860  00000+0  10956-2 0  9995
2 69683  97.2852  41.2829 0001425 107.2500 252.8921 15.75237546  2916
STARLINK-37951          
1 69684U 26145H   26194.52040661  .00209964  00000+0  13701-2 0  9990
2 69684  97.2831  41.2843 0001484 114.4040 245.7380 15.75259469  2912
STARLINK-37957          
1 69685U 26145J   26194.51934823  .00141954  00000+0  93535-3 0  9990
2 69685  97.2844  41.2857 0001582 105.4092 254.7348 15.75226942  2912
STARLINK-37968          
1 69686U 26145K   26194.51334792  .00201795  00000+0  13179-2 0  9995
2 69686  97.2835  41.2940 0001554 101.1523 258.9917 15.75262185  2914
STARLINK-37977          
1 69687U 26145L   26194.51264182  .00199818  00000+0  13053-2 0  9994
2 69687  97.2842  41.2953 0001644 100.9736 259.1714 15.75263487  2914
STARLINK-37908          
1 69688U 26145M   26194.51052451  .00233350  00000+0  15174-2 0  9995
2 69688  97.2848  41.2995 0001523 105.5681 254.5752 15.75275603  2917
STARLINK-37979          
1 69689U 26145N   26194.57370062  .00121747  00000+0  80668-3 0  9990
2 69689  97.2842  41.3650 0000998  61.1258 299.0108 15.75157356  2927
STARLINK-37940          
1 69690U 26145P   26194.50911285  .00183196  00000+0  11993-2 0  9993
2 69690  97.2847  41.3013 0001973 102.5824 257.5662 15.75259249  2917
STARLINK-37961          
1 69691U 26145Q   26194.56946874  .00135023  00000+0  89301-3 0  9997
2 69691  97.2843  41.3706 0002475 352.7664   7.3565 15.75158712  2929
STARLINK-37787          
1 69692U 26145R   26194.56734882  .00089123  00000+0  59291-3 0  9996
2 69692  97.2840  41.3735 0001349  48.2409 311.8971 15.75161268  2926
STARLINK-37962          
1 69693U 26145S   26194.56558334  .00130878  00000+0  86581-3 0  9999
2 69693  97.2851  41.3769 0001102  50.8924 309.2439 15.75167035  2922
STARLINK-37953          
1 69694U 26145T   26194.56840708  .00116252  00000+0  77057-3 0  9997
2 69694  97.2845  41.3731 0000958  91.6548 268.4827 15.75164423  2923
STARLINK-37926          
1 69695U 26145U   26194.56770249  .00133627  00000+0  88368-3 0  9992
2 69695  97.2847  41.3738 0001182  33.1007 327.0332 15.75167446  2925
STARLINK-37959          
1 69696U 26145V   26194.56664352  .00154745  00000+0  10203-2 0  9996
2 69696  97.2844  41.3742 0000714  63.1877 296.9461 15.75175759  2929
STARLINK-37976          
1 69697U 26145W   26194.56382105  .00117273  00000+0  77718-3 0  9990
2 69697  97.2842  41.3786 0001311  24.5670 335.5657 15.75165651  2929
STARLINK-37912          
1 69698U 26145X   26194.56276318  .00164370  00000+0  10825-2 0  9994
2 69698  97.2841  41.3814 0001849   6.8052 353.3238 15.75173916  2920
STARLINK-37974          
1 69699U 26145Y   26194.81617182  .00174564  00000+0  11468-2 0  9991
2 69699  97.2843  41.6491 0002542 350.4303   9.6913 15.75202638  2964
STARLINK-37955          
1 69700U 26145Z   26194.81369865  .00115578  00000+0  76501-3 0  9996
2 69700  97.2843  41.6520 0001608  92.3524 267.7926 15.75198703  2967
STRIX-8                 
1 69701U 26146A   26194.82469794  .00002512  00000+0  19008-3 0  9993
2 69701  41.9902  20.6848 0007342  13.1038 346.9979 15.04427522  2573
STARLINK-38055          
1 69704U 26147A   26194.64999953  .00145006  00000+0  74450-3 0  9990
2 69704  97.2841 230.9465 0000795 138.2404 221.8925 15.80838481  3616
STARLINK-37898          
1 69705U 26147B   26194.64917664  .00181334  00000+0  92835-3 0  9991
2 69705  97.2838 230.9473 0000399  54.4258 305.7047 15.80804873  3613
STARLINK-37970          
1 69706U 26147C   26194.64842867  .00196577  00000+0  10048-2 0  9994
2 69706  97.2836 230.9486 0001131  93.7145 266.4253 15.80798834  3613
